NORAD_CAT_ID,OBJECT_NAME,OBJECT_TYPE,EPOCH,MEAN_MOTION,ECCENTRICITY,INCLINATION,RA_OF_ASC_NODE,ARG_OF_PERICENTER,MEAN_ANOMALY,BSTAR,MEAN_MOTION_DOT,MEAN_MOTION_DDOT,TLE_LINE0,TLE_LINE1,TLE_LINE2,SEMIMAJOR_AXIS,PERIOD,APOGEE,PERIGEE,DECAYED
52546.0,STARLINK-3948,PAYLOAD,2022-09-12 14:00:01,15.08844869,0.0001795,53.2181,88.7976,57.2174,143.4102,-0.0010815999999999,-0.00017463,0.0,0 STARLINK-3948,1 52546U 22051P   22255.58334491 -.00017463  00000-0 -10816-2 0  9996,2 52546  53.2181  88.7976 0001795  57.2174 143.4102 15.08844869  1309,6917.866,95.437,540.972,538.489,0.0
52546.0,STARLINK-3948,PAYLOAD,2022-09-12 22:00:00,15.08813491,0.0001992,53.2181,87.3029,51.1865,161.0386,0.0024768,0.00039322,0.0,0 STARLINK-3948,1 52546U 22051P   22255.91667824  .00039322  00000-0  24768-2 0  9999,2 52546  53.2181  87.3029 0001992  51.1865 161.0386 15.08813491  1309,6917.9609999999975,95.439,541.2040000000002,538.448,0.0
52546.0,STARLINK-3948,PAYLOAD,2022-09-13 08:00:01,15.0882927,0.0001804,53.2184,85.4306,54.9844,261.7246,0.0016598,0.00026219,0.0,0 STARLINK-3948,1 52546U 22051P   22256.33334491  .00026219  00000-0  16598-2 0  9990,2 52546  53.2184  85.4306 0001804  54.9844 261.7246 15.08829270 19280,6917.913000000001,95.438,541.026,538.53,0.0
52546.0,STARLINK-3948,PAYLOAD,2022-09-13 14:00:01,15.08862639,0.0001801,53.2187,84.3085,56.6479,178.7493,-0.0024385,-0.00038912,0.0,0 STARLINK-3948,1 52546U 22051P   22256.58334491 -.00038912  00000-0 -24385-2 0  9995,2 52546  53.2187  84.3085 0001801  56.6479 178.7493 15.08862639  1306,6917.811,95.436,540.922,538.43,0.0
52546.0,STARLINK-3948,PAYLOAD,2022-09-13 22:00:00,15.08835989,0.0002070999999999,53.2175,82.8151,48.1307,198.83,0.00013086,1.795e-05,0.0,0 STARLINK-3948,1 52546U 22051P   22256.91667824  .00001795  00000-0  13086-3 0  9995,2 52546  53.2175  82.8151 0002071  48.1307 198.8300 15.08835989  1304,6917.893,95.438,541.19,538.325,0.0
52546.0,STARLINK-3948,PAYLOAD,2022-09-14 14:00:01,15.08855571,0.0001756,53.2192,79.8197,55.765,214.3601,-0.00022914,-3.935e-05,0.0,0 STARLINK-3948,1 52546U 22051P   22257.58334491 -.00003935  00000-0 -22914-3 0  9990,2 52546  53.2192  79.8197 0001756  55.7650 214.3601 15.08855571  1300,6917.833000000001,95.437,540.913,538.4830000000002,0.0
52546.0,STARLINK-3948,PAYLOAD,2022-09-14 22:00:00,15.08837101,0.0001878,53.2188,78.3251,48.117,233.6247,-0.00012011,-2.199e-05,0.0,0 STARLINK-3948,1 52546U 22051P   22257.91667824 -.00002199  00000-0 -12011-3 0  9994,2 52546  53.2188  78.3251 0001878  48.1170 233.6247 15.08837101  1307,6917.889,95.438,541.053,538.455,0.0
52546.0,STARLINK-3948,PAYLOAD,2022-09-15 06:00:00,15.08832412,0.0001679,53.2192,76.8271,50.6851,242.6497,0.00019588,2.8300000000000014e-05,0.0,0 STARLINK-3948,1 52546U 22051P   22258.25001157  .00002830  00000-0  19588-3 0  9999,2 52546  53.2192  76.8271 0001679  50.6851 242.6497 15.08832412 19575,6917.904,95.438,540.93,538.607,0.0
52546.0,STARLINK-3948,PAYLOAD,2022-09-15 14:00:01,15.08854409,0.0001664,53.2194,75.331,53.8176,251.0982,-0.00053925,-8.863e-05,0.0,0 STARLINK-3948,1 52546U 22051P   22258.58334491 -.00008863  00000-0 -53925-3 0  9992,2 52546  53.2194  75.3310 0001664  53.8176 251.0982 15.08854409  1309,6917.8359999999975,95.437,540.852,538.55,0.0
52546.0,STARLINK-3948,PAYLOAD,2022-09-15 20:36:11,15.08838309,0.0001827,53.2201,74.0975,59.5468,300.5705,0.00016195,2.29e-05,0.0,0 STARLINK-3948,1 52546U 22051P   22258.85846175  .00002290  00000-0  16195-3 0  9993,2 52546  53.2201  74.0975 0001827  59.5468 300.5705 15.08838309 19593,6917.886,95.438,541.014,538.487,0.0
52546.0,STARLINK-3948,PAYLOAD,2022-09-16 10:54:39,15.0884345,0.0001779,53.2196,71.4205,51.8644,308.2508,0.00013859,1.918e-05,0.0,0 STARLINK-3948,1 52546U 22051P   22259.45461893  .00001918  00000-0  13859-3 0  9990,2 52546  53.2196  71.4205 0001779  51.8644 308.2508 15.08843450 19689,6917.87,95.437,540.966,538.504,0.0
52546.0,STARLINK-3948,PAYLOAD,2022-09-16 14:05:25,15.0883921,0.0001785,53.2198,70.8258,54.2421,305.8736,2.7371e-05,1.48e-06,0.0,0 STARLINK-3948,1 52546U 22051P   22259.58710116  .00000148  00000-0  27371-4 0  9998,2 52546  53.2198  70.8258 0001785  54.2421 305.8736 15.08839210 19774,6917.8830000000025,95.438,540.9830000000002,538.513,0.0
52546.0,STARLINK-3948,PAYLOAD,2022-09-16 18:51:34,15.08840119,0.0001837,53.2196,69.9337,52.7961,307.3199,2.1915e-05,6.1e-07,0.0,0 STARLINK-3948,1 52546U 22051P   22259.78582072  .00000061  00000-0  21915-4 0  9990,2 52546  53.2196  69.9337 0001837  52.7961 307.3199 15.08840119 19735,6917.88,95.438,541.016,538.474,0.0
52546.0,STARLINK-3948,PAYLOAD,2022-09-17 10:45:25,15.08857961,0.0002069,53.221,66.9608,40.6122,319.5024,0.00017225,2.456e-05,0.0,0 STARLINK-3948,1 52546U 22051P   22260.44820804  .00002456  00000-0  17225-3 0  9991,2 52546  53.2210  66.9608 0002069  40.6122 319.5024 15.08857961 19907,6917.825,95.436,541.122,538.259,0.0
52546.0,STARLINK-3948,PAYLOAD,2022-09-17 18:42:21,15.08840961,0.0001823,53.2197,65.4734,51.756,308.3596,-9.5348e-06,-4.4e-06,0.0,0 STARLINK-3948,1 52546U 22051P   22260.77941401 -.00000440  00000-0 -95348-5 0  9991,2 52546  53.2197  65.4734 0001823  51.7560 308.3596 15.08840961 19880,6917.877,95.437,541.004,538.481,0.0
52546.0,STARLINK-3948,PAYLOAD,2022-09-17 23:28:30,15.08841623,0.0001906,53.2197,64.5813,50.3505,309.7655,-3.9741000000000015e-06,-3.51e-06,0.0,0 STARLINK-3948,1 52546U 22051P   22260.97813355 -.00000351  00000-0 -39741-5 0  9995,2 52546  53.2197  64.5813 0001906  50.3505 309.7655 15.08841623 19915,6917.875,95.437,541.059,538.422,0.0
52546.0,STARLINK-3948,PAYLOAD,2022-09-18 20:08:31,15.08840035,0.0001771,53.2194,60.7171,45.1614,314.9521,5.0074e-05,5.09e-06,0.0,0 STARLINK-3948,1 52546U 22051P   22261.83925272  .00000509  00000-0  50074-4 0  9997,2 52546  53.2194  60.7171 0001771  45.1614 314.9521 15.08840035 20110,6917.88,95.438,540.97,538.52,0.0
52546.0,STARLINK-3948,PAYLOAD,2022-09-19 10:26:59,15.08843381,0.0001683,53.2196,58.0399,50.4764,309.6376,6.1242e-05,6.87e-06,0.0,0 STARLINK-3948,1 52546U 22051P   22262.43541027  .00000687  00000-0  61242-4 0  9992,2 52546  53.2196  58.0399 0001683  50.4764 309.6376 15.08843381 20139,6917.87,95.437,540.899,538.571,0.0
52546.0,STARLINK-3948,PAYLOAD,2022-09-19 19:59:18,15.08837812,0.0001798,53.2192,56.2548,49.6718,310.4431,0.00014131,1.961e-05,0.0,0 STARLINK-3948,1 52546U 22051P   22262.83285338  .00001961  00000-0  14131-3 0  9996,2 52546  53.2192  56.2548 0001798  49.6718 310.4431 15.08837812 20197,6917.887,95.438,540.996,538.508,0.0
52546.0,STARLINK-3948,PAYLOAD,2022-09-20 03:56:14,15.08834885,0.0001989,53.2193,54.7688,53.3621,306.7554,9.4305e-05,1.213e-05,0.0,0 STARLINK-3948,1 52546U 22051P   22263.16405630  .00001213  00000-0  94305-4 0  9994,2 52546  53.2193  54.7688 0001989  53.3621 306.7554 15.08834885 20318,6917.896,95.438,541.137,538.385,0.0
52546.0,STARLINK-3948,PAYLOAD,2022-09-20 11:53:10,15.08839433,0.0002,53.2195,53.2822,55.374,304.7441,0.00017102,2.435e-05,0.0,0 STARLINK-3948,1 52546U 22051P   22263.49525635  .00002435  00000-0  17102-3 0  9994,2 52546  53.2195  53.2822 0002000  55.3740 304.7441 15.08839433 20297,6917.882,95.438,541.131,538.364,0.0
52546.0,STARLINK-3948,PAYLOAD,2022-09-20 19:50:05,15.08842123,0.0002059,53.2197,51.7966,49.6125,310.5047,0.00028573,4.262e-05,0.0,0 STARLINK-3948,1 52546U 22051P   22263.82645717  .00004262  00000-0  28573-3 0  9999,2 52546  53.2197  51.7966 0002059  49.6125 310.5047 15.08842123 20341,6917.874,95.437,541.163,538.315,0.0
52546.0,STARLINK-3948,PAYLOAD,2022-09-21 11:43:57,15.08836426,0.0001943999999999,53.2196,48.8219,53.5685,306.5486,0.00018192,2.608e-05,0.0,0 STARLINK-3948,1 52546U 22051P   22264.48886269  .00002608  00000-0  18192-3 0  9999,2 52546  53.2196  48.8219 0001944  53.5685 306.5486 15.08836426 20515,6917.891,95.438,541.101,538.411,0.0
52546.0,STARLINK-3948,PAYLOAD,2022-09-21 19:40:53,15.08841531,0.0001839,53.2199,47.3354,53.7747,306.3415,0.00040718,6.198e-05,0.0,0 STARLINK-3948,1 52546U 22051P   22264.82006260  .00006198  00000-0  40718-3 0  9999,2 52546  53.2199  47.3354 0001839  53.7747 306.3415 15.08841531 20496,6917.876,95.437,541.013,538.469,0.0
52546.0,STARLINK-3948,PAYLOAD,2022-09-22 13:10:08,15.08835311,0.0001927,53.2201,44.0645,51.4827,308.6338,0.00017353,2.474e-05,0.0,0 STARLINK-3948,1 52546U 22051P   22265.54870703  .00002474  00000-0  17353-3 0  9992,2 52546  53.2201  44.0645 0001927  51.4827 308.6338 15.08835311 20600,6917.895,95.438,541.0930000000002,538.427,0.0
52546.0,STARLINK-3948,PAYLOAD,2022-09-22 17:56:17,15.08836074,0.0001921999999999,53.2202,43.1726,53.1732,306.9436,0.00016037,2.265e-05,0.0,0 STARLINK-3948,1 52546U 22051P   22265.74742789  .00002265  00000-0  16037-3 0  9992,2 52546  53.2202  43.1726 0001922  53.1732 306.9436 15.08836074 20630,6917.892,95.438,541.087,538.428,0.0
52546.0,STARLINK-3948,PAYLOAD,2022-09-23 13:00:55,15.08839332,0.0001886999999999,53.2203,39.6044,48.734,311.3815,0.00015484,2.177e-05,0.0,0 STARLINK-3948,1 52546U 22051P   22266.54230910  .00002177  00000-0  15484-3 0  9996,2 52546  53.2203  39.6044 0001887  48.7340 311.3815 15.08839332 20753,6917.882,95.438,541.053,538.442,0.0
52546.0,STARLINK-3948,PAYLOAD,2022-09-23 19:22:28,15.08834199,0.0001898,53.2202,38.415,49.2979,310.8178,4.0571e-05,3.58e-06,0.0,0 STARLINK-3948,1 52546U 22051P   22266.80727165  .00000358  00000-0  40571-4 0  9993,2 52546  53.2202  38.4150 0001898  49.2979 310.8178 15.08834199 20867,6917.898,95.438,541.076,538.45,0.0
52546.0,STARLINK-3948,PAYLOAD,2022-09-24 12:51:42,15.08837827,0.0001861,53.2203,35.1441,48.1099,312.0052,0.00013745,1.9e-05,0.0,0 STARLINK-3948,1 52546U 22051P   22267.53591353  .00001900  00000-0  13745-3 0  9998,2 52546  53.2203  35.1441 0001861  48.1099 312.0052 15.08837827 20907,6917.887,95.438,541.039,538.465,0.0
